<?xml version="1.0" encoding="UTF-8"?>
<kml xmlns="http://www.opengis.net/kml/2.2">
  <Document>
    <name>Brava Burgers</name>
    <description><![CDATA[Zona de Cobertura - BRAVA BURGERS<br>]]></description>
    <Style id="poly-FF5252-1200-77-nodesc-normal">
      <LineStyle>
        <color>ff5252ff</color>
        <width>1.2</width>
      </LineStyle>
      <PolyStyle>
        <color>4d5252ff</color>
        <fill>1</fill>
        <outline>1</outline>
      </PolyStyle>
      <BalloonStyle>
        <text><![CDATA[<h3>$[name]</h3>]]></text>
      </BalloonStyle>
    </Style>
    <Style id="poly-FF5252-1200-77-nodesc-highlight">
      <LineStyle>
        <color>ff5252ff</color>
        <width>1.8</width>
      </LineStyle>
      <PolyStyle>
        <color>4d5252ff</color>
        <fill>1</fill>
        <outline>1</outline>
      </PolyStyle>
      <BalloonStyle>
        <text><![CDATA[<h3>$[name]</h3>]]></text>
      </BalloonStyle>
    </Style>
    <StyleMap id="poly-FF5252-1200-77-nodesc">
      <Pair>
        <key>normal</key>
        <styleUrl>#poly-FF5252-1200-77-nodesc-normal</styleUrl>
      </Pair>
      <Pair>
        <key>highlight</key>
        <styleUrl>#poly-FF5252-1200-77-nodesc-highlight</styleUrl>
      </Pair>
    </StyleMap>
    <Style id="poly-FFD600-1200-66-nodesc-normal">
      <LineStyle>
        <color>ff00d6ff</color>
        <width>1.2</width>
      </LineStyle>
      <PolyStyle>
        <color>4200d6ff</color>
        <fill>1</fill>
        <outline>1</outline>
      </PolyStyle>
      <BalloonStyle>
        <text><![CDATA[<h3>$[name]</h3>]]></text>
      </BalloonStyle>
    </Style>
    <Style id="poly-FFD600-1200-66-nodesc-highlight">
      <LineStyle>
        <color>ff00d6ff</color>
        <width>1.8</width>
      </LineStyle>
      <PolyStyle>
        <color>4200d6ff</color>
        <fill>1</fill>
        <outline>1</outline>
      </PolyStyle>
      <BalloonStyle>
        <text><![CDATA[<h3>$[name]</h3>]]></text>
      </BalloonStyle>
    </Style>
    <StyleMap id="poly-FFD600-1200-66-nodesc">
      <Pair>
        <key>normal</key>
        <styleUrl>#poly-FFD600-1200-66-nodesc-normal</styleUrl>
      </Pair>
      <Pair>
        <key>highlight</key>
        <styleUrl>#poly-FFD600-1200-66-nodesc-highlight</styleUrl>
      </Pair>
    </StyleMap>
    <Folder>
      <name>Mapa Brava Burgers</name>
      <Placemark>
        <name>Polígono 5</name>
        <styleUrl>#poly-FFD600-1200-66-nodesc</styleUrl>
        <Polygon>
          <outerBoundaryIs>
            <LinearRing>
              <tessellate>1</tessellate>
              <coordinates>
                -58.5356641,-34.5360964,0
                -58.5335505,-34.5353805,0
                -58.5339797,-34.5346116,0
                -58.5322309,-34.5339531,0
                -58.5309327,-34.5336703,0
                -58.5255039,-34.5310806,0
                -58.5248816,-34.5307183,0
                -58.5230846,-34.5298521,0
                -58.5212607,-34.5289417,0
                -58.5196513,-34.5281108,0
                -58.5177416,-34.5271341,0
                -58.5150057,-34.5257464,0
                -58.5111004,-34.5237575,0
                -58.508944,-34.5226968,0
                -58.5065997,-34.5215079,0
                -58.5041428,-34.5202261,0
                -58.5022062,-34.5228559,0
                -58.4980488,-34.5207609,0
                -58.4958601,-34.5197134,0
                -58.4928185,-34.5182195,0
                -58.4915471,-34.517583,0
                -58.4888167,-34.5162349,0
                -58.4875346,-34.5156293,0
                -58.4844768,-34.5141176,0
                -58.4819019,-34.5128667,0
                -58.4794343,-34.5116378,0
                -58.4783507,-34.5110853,0
                -58.478538,-34.5106379,0
                -58.4790369,-34.5094754,0
                -58.4794606,-34.5084763,0
                -58.4798415,-34.5075701,0
                -58.4800507,-34.5070529,0
                -58.4806355,-34.5055985,0
                -58.4811236,-34.5045022,0
                -58.4815528,-34.5033395,0
                -58.4819819,-34.502367,0
                -58.4822555,-34.501916,0
                -58.4827598,-34.5010717,0
                -58.4836234,-34.4996702,0
                -58.484235,-34.4986888,0
                -58.4845461,-34.4958239,0
                -58.484707,-34.4943914,0
                -58.4845461,-34.491774,0
                -58.4848358,-34.490589,0
                -58.4853937,-34.4884402,0
                -58.485855,-34.4870076,0
                -58.4878399,-34.4851593,0
                -58.4896101,-34.4834614,0
                -58.4916379,-34.4814803,0
                -58.4926678,-34.4803483,0
                -58.4937193,-34.4791013,0
                -58.4925713,-34.4785176,0
                -58.4951891,-34.4750241,0
                -58.4956183,-34.4746614,0
                -58.4970774,-34.4736797,0
                -58.4994377,-34.4748383,0
                -58.4986867,-34.4754044,0
                -58.4998132,-34.4758908,0
                -58.4994699,-34.4761562,0
                -58.5036756,-34.4783938,0
                -58.5053601,-34.4793224,0
                -58.5066153,-34.4800211,0
                -58.5079135,-34.480366,0
                -58.5106494,-34.4814892,0
                -58.5137393,-34.4834967,0
                -58.521507,-34.4875912,0
                -58.5247578,-34.4893776,0
                -58.5286738,-34.4914822,0
                -58.5323645,-34.4933922,0
                -58.5369994,-34.4957708,0
                -58.5421063,-34.4985031,0
                -58.5430719,-34.4990513,0
                -58.5464086,-34.5015801,0
                -58.5471167,-34.5020752,0
                -58.5496487,-34.5041264,0
                -58.550389,-34.5047984,0
                -58.54849,-34.5063633,0
                -58.5455288,-34.5086797,0
                -58.5549917,-34.5167865,0
                -58.5431363,-34.5260062,0
                -58.5454108,-34.5279331,0
                -58.5417952,-34.5311151,0
                -58.5400142,-34.5297451,0
                -58.5391881,-34.5305494,0
                -58.5383298,-34.5306997,0
                -58.5385336,-34.5320608,0
                -58.5370745,-34.5322641,0
                -58.5372032,-34.5326088,0
                -58.5358836,-34.5351984,0
                -58.5361089,-34.535331,0
                -58.5356641,-34.5360964,0
              </coordinates>
            </LinearRing>
          </outerBoundaryIs>
        </Polygon>
      </Placemark>
    </Folder>
    <Folder>
      <name>Zona de Envios</name>
      <Placemark>
        <name>Martinez</name>
        <styleUrl>#poly-FF5252-1200-77-nodesc</styleUrl>
        <Polygon>
          <outerBoundaryIs>
            <LinearRing>
              <tessellate>1</tessellate>
              <coordinates>
                -58.4935217,-34.4790315,0
                -58.4969041,-34.480596,0
                -58.5037285,-34.4839581,0
                -58.506997,-34.479996,0
                -58.5106494,-34.4814892,0
                -58.5120507,-34.4824978,0
                -58.5168829,-34.4852761,0
                -58.5430719,-34.4990513,0
                -58.5391328,-34.5031776,0
                -58.5361845,-34.5044395,0
                -58.5365691,-34.506171,0
                -58.5359374,-34.5070537,0
                -58.5312613,-34.5132097,0
                -58.5249579,-34.5102902,0
                -58.4974569,-34.4977813,0
                -58.4868044,-34.4929285,0
                -58.4842913,-34.4917288,0
                -58.4854663,-34.4870872,0
                -58.4867023,-34.4858874,0
                -58.4935217,-34.4790315,0
              </coordinates>
            </LinearRing>
          </outerBoundaryIs>
        </Polygon>
      </Placemark>
      <Placemark>
        <name>Acasusso</name>
        <styleUrl>#poly-FF5252-1200-77-nodesc</styleUrl>
        <Polygon>
          <outerBoundaryIs>
            <LinearRing>
              <tessellate>1</tessellate>
              <coordinates>
                -58.4935217,-34.4790315,0
                -58.4991821,-34.4760222,0
                -58.506997,-34.479996,0
                -58.5037285,-34.4839581,0
                -58.4935217,-34.4790315,0
              </coordinates>
            </LinearRing>
          </outerBoundaryIs>
        </Polygon>
      </Placemark>
      <Placemark>
        <name>La Lucila</name>
        <styleUrl>#poly-FF5252-1200-77-nodesc</styleUrl>
        <Polygon>
          <outerBoundaryIs>
            <LinearRing>
              <tessellate>1</tessellate>
              <coordinates>
                -58.4974569,-34.4977813,0
                -58.4929785,-34.5063454,0
                -58.4822694,-34.5014338,0
                -58.4824595,-34.4909309,0
                -58.4974569,-34.4977813,0
              </coordinates>
            </LinearRing>
          </outerBoundaryIs>
        </Polygon>
      </Placemark>
      <Placemark>
        <name>Olivos</name>
        <styleUrl>#poly-FF5252-1200-77-nodesc</styleUrl>
        <Polygon>
          <outerBoundaryIs>
            <LinearRing>
              <tessellate>1</tessellate>
              <coordinates>
                -58.5252818,-34.5104064,0
                -58.5214787,-34.5129838,0
                -58.5141728,-34.5195015,0
                -58.5086796,-34.5261771,0
                -58.4844874,-34.514387,0
                -58.4762614,-34.5102524,0
                -58.4776621,-34.5076496,0
                -58.4766734,-34.5070159,0
                -58.477772,-34.5042998,0
                -58.4778269,-34.5039603,0
                -58.4803812,-34.5053863,0
                -58.4822694,-34.5014338,0
                -58.4929785,-34.5063454,0
                -58.4974569,-34.4977813,0
                -58.5252818,-34.5104064,0
              </coordinates>
            </LinearRing>
          </outerBoundaryIs>
        </Polygon>
      </Placemark>
      <Placemark>
        <name>Munro</name>
        <styleUrl>#poly-FF5252-1200-77-nodesc</styleUrl>
        <Polygon>
          <outerBoundaryIs>
            <LinearRing>
              <tessellate>1</tessellate>
              <coordinates>
                -58.5086796,-34.5261771,0
                -58.5105174,-34.5239406,0
                -58.5127512,-34.5212461,0
                -58.5135134,-34.5203296,0
                -58.5141314,-34.5195658,0
                -58.5145159,-34.5192094,0
                -58.5161776,-34.5177229,0
                -58.5201708,-34.5141608,0
                -58.5213862,-34.5130688,0
                -58.522511,-34.512288,0
                -58.5252818,-34.5104064,0
                -58.5312613,-34.5132097,0
                -58.5306147,-34.5140261,0
                -58.5321184,-34.51492,0
                -58.5358538,-34.5174968,0
                -58.5341646,-34.5191841,0
                -58.5338763,-34.5192803,0
                -58.5331072,-34.5194953,0
                -58.5322785,-34.5201378,0
                -58.5308228,-34.5212636,0
                -58.5293603,-34.5224863,0
                -58.5277741,-34.5242796,0
                -58.5276643,-34.5245229,0
                -58.5269776,-34.5253131,0
                -58.5295834,-34.5271195,0
                -58.5314305,-34.5280529,0
                -58.5312245,-34.5303524,0
                -58.531055,-34.5320759,0
                -58.5325313,-34.5323192,0
                -58.5335818,-34.5325511,0
                -58.5365099,-34.533635,0
                -58.5356918,-34.5352374,0
                -58.535939,-34.5353393,0
                -58.5350601,-34.5369117,0
                -58.5330207,-34.5361029,0
                -58.5333713,-34.5354308,0
                -58.5337902,-34.5346276,0
                -58.5315517,-34.533864,0
                -58.5307415,-34.5336717,0
                -58.5290712,-34.5360604,0
                -58.5226601,-34.5329218,0
                -58.5086796,-34.5261771,0
              </coordinates>
            </LinearRing>
          </outerBoundaryIs>
        </Polygon>
      </Placemark>
      <Placemark>
        <name>Carapachay</name>
        <styleUrl>#poly-FF5252-1200-77-nodesc</styleUrl>
        <Polygon>
          <outerBoundaryIs>
            <LinearRing>
              <tessellate>1</tessellate>
              <coordinates>
                -58.545161,-34.5279092,0
                -58.5452196,-34.5279901,0
                -58.5425706,-34.5303051,0
                -58.541238,-34.5314759,0
                -58.5398732,-34.5326068,0
                -58.5385778,-34.5337633,0
                -58.5380122,-34.5333957,0
                -58.5376689,-34.534131,0
                -58.5365325,-34.5336615,0
                -58.5336265,-34.5325581,0
                -58.533417,-34.5325157,0
                -58.531055,-34.5320759,0
                -58.5314305,-34.5280529,0
                -58.5295834,-34.5271195,0
                -58.5283397,-34.526258,0
                -58.5269776,-34.5253131,0
                -58.5285408,-34.5234095,0
                -58.5293603,-34.5224863,0
                -58.530296,-34.5216957,0
                -58.5309174,-34.5211865,0
                -58.5316693,-34.5206001,0
                -58.5331072,-34.5194953,0
                -58.5341646,-34.5191841,0
                -58.5357911,-34.5175726,0
                -58.5360211,-34.517748,0
                -58.5364125,-34.518062,0
                -58.5370955,-34.5185577,0
                -58.5357059,-34.5197914,0
                -58.5392705,-34.5227439,0
                -58.545161,-34.5279092,0
              </coordinates>
            </LinearRing>
          </outerBoundaryIs>
        </Polygon>
      </Placemark>
      <Placemark>
        <name>Villa Adelina</name>
        <styleUrl>#poly-FF5252-1200-77-nodesc</styleUrl>
        <Polygon>
          <outerBoundaryIs>
            <LinearRing>
              <tessellate>1</tessellate>
              <coordinates>
                -58.5430719,-34.4990513,0
                -58.5429668,-34.4991962,0
                -58.5483813,-34.5031428,0
                -58.5502421,-34.5048092,0
                -58.5453514,-34.5086908,0
                -58.5509358,-34.5133842,0
                -58.5548497,-34.5168241,0
                -58.5482991,-34.5218735,0
                -58.5429261,-34.5259566,0
                -58.5357059,-34.5197914,0
                -58.5370955,-34.5185577,0
                -58.5358538,-34.5174968,0
                -58.5306147,-34.5140261,0
                -58.5365691,-34.506171,0
                -58.5361845,-34.5044395,0
                -58.5391328,-34.5031776,0
                -58.5430719,-34.4990513,0
              </coordinates>
            </LinearRing>
          </outerBoundaryIs>
        </Polygon>
      </Placemark>
    </Folder>
  </Document>
</kml>
